[{"OBJECT_NAME":"MESON-1","OBJECT_ID":"2024-043AK","EPOCH":"2026-03-09T21:36:16.481664","MEAN_MOTION":15.29893494,"ECCENTRICITY":0.00095452,"INCLINATION":97.5469,"RA_OF_ASC_NODE":205.2839,"ARG_OF_PERICENTER":227.1432,"MEAN_ANOMALY":132.9007,"EPHEMERIS_TYPE":0,"CLASSIFICATION_TYPE":"U","NORAD_CAT_ID":59131,"ELEMENT_SET_NO":999,"REV_AT_EPOCH":11189,"BSTAR":0.0002974823,"MEAN_MOTION_DOT":8.544e-5,"MEAN_MOTION_DDOT":0},{"OBJECT_NAME":"STARLINK-33856","OBJECT_ID":"2025-083E","EPOCH":"2026-03-09T04:44:10.405824","MEAN_MOTION":15.27570778,"ECCENTRICITY":0.00011696,"INCLINATION":43.002,"RA_OF_ASC_NODE":7.8085,"ARG_OF_PERICENTER":283.6639,"MEAN_ANOMALY":76.4082,"EPHEMERIS_TYPE":0,"CLASSIFICATION_TYPE":"U","NORAD_CAT_ID":63638,"ELEMENT_SET_NO":999,"REV_AT_EPOCH":4999,"BSTAR":0.00088533193,"MEAN_MOTION_DOT":0.00024173,"MEAN_MOTION_DDOT":0}]
